{
  "norad_id": 42815,
  "name": "GSAT-17",
  "history": [
    {
      "epoch": "2026-05-03T20:33:29.935008Z",
      "apogee_km": 35801.7754333079,
      "perigee_km": 35771.138639281126,
      "latitude_deg": -0.004533389285282245,
      "longitude_deg": 93.51059844332669,
      "height_km": 35778.007815604346,
      "semi_major_axis_km": 42164.59403629451,
      "eccentricity": 0.0003633,
      "inclination_deg": 0.0076,
      "raan_deg": 272.7214,
      "arg_perigee_deg": 49.4551,
      "mean_anomaly_deg": 301.5048,
      "mean_motion_rev_day": 1.00272277
    },
    {
      "epoch": "2026-05-04T19:33:38.801088Z",
      "apogee_km": 35801.91660205044,
      "perigee_km": 35771.18697686068,
      "latitude_deg": -0.011946122209757357,
      "longitude_deg": 93.50730033770728,
      "height_km": 35781.441508958,
      "semi_major_axis_km": 42164.68878945556,
      "eccentricity": 0.0003644,
      "inclination_deg": 0.0059,
      "raan_deg": 273.7605,
      "arg_perigee_deg": 48.2966,
      "mean_anomaly_deg": 287.6071,
      "mean_motion_rev_day": 1.00271939
    },
    {
      "epoch": "2026-05-05T18:04:47.342208Z",
      "apogee_km": 35801.76711496521,
      "perigee_km": 35771.52653200701,
      "latitude_deg": -0.019651592116663348,
      "longitude_deg": 93.50628801403674,
      "height_km": 35787.12936639708,
      "semi_major_axis_km": 42164.78382348611,
      "eccentricity": 0.0003586,
      "inclination_deg": 0.0044,
      "raan_deg": 278.0626,
      "arg_perigee_deg": 44.0075,
      "mean_anomaly_deg": 266.3048,
      "mean_motion_rev_day": 1.002716
    },
    {
      "epoch": "2026-05-06T20:41:27.966336Z",
      "apogee_km": 35801.63021724907,
      "perigee_km": 35771.90395986664,
      "latitude_deg": -0.0022452235884128594,
      "longitude_deg": 93.51334476225888,
      "height_km": 35777.440526926846,
      "semi_major_axis_km": 42164.90408855786,
      "eccentricity": 0.0003525,
      "inclination_deg": 0.0057,
      "raan_deg": 10.761,
      "arg_perigee_deg": 311.2409,
      "mean_anomaly_deg": 306.6338,
      "mean_motion_rev_day": 1.00271171
    },
    {
      "epoch": "2026-05-07T21:02:21.861024Z",
      "apogee_km": 35801.558819891616,
      "perigee_km": 35772.21196430672,
      "latitude_deg": -0.000825972133096019,
      "longitude_deg": 93.51346717077938,
      "height_km": 35776.38647801591,
      "semi_major_axis_km": 42165.02239209917,
      "eccentricity": 0.000348,
      "inclination_deg": 0.0082,
      "raan_deg": 23.648,
      "arg_perigee_deg": 298.0266,
      "mean_anomaly_deg": 313.1828,
      "mean_motion_rev_day": 1.00270749
    },
    {
      "epoch": "2026-05-08T18:37:41.075040Z",
      "apogee_km": 35801.53297255399,
      "perigee_km": 35772.46432803668,
      "latitude_deg": -0.013684267762950722,
      "longitude_deg": 93.49888628480724,
      "height_km": 35784.38472205731,
      "semi_major_axis_km": 42165.135650295335,
      "eccentricity": 0.0003447,
      "inclination_deg": 0.0361,
      "raan_deg": 80.6519,
      "arg_perigee_deg": 240.4925,
      "mean_anomaly_deg": 278.4257,
      "mean_motion_rev_day": 1.00270345
    },
    {
      "epoch": "2026-05-09T18:53:11.304096Z",
      "apogee_km": 35801.55543044796,
      "perigee_km": 35772.70595429284,
      "latitude_deg": 0.018500769518409132,
      "longitude_deg": 93.49296110645598,
      "height_km": 35783.17552566474,
      "semi_major_axis_km": 42165.267692370406,
      "eccentricity": 0.0003421,
      "inclination_deg": 0.0383,
      "raan_deg": 98.5167,
      "arg_perigee_deg": 221.9893,
      "mean_anomaly_deg": 283.9306,
      "mean_motion_rev_day": 1.00269874
    },
    {
      "epoch": "2026-05-10T20:05:10.929120Z",
      "apogee_km": 35801.61212251146,
      "perigee_km": 35772.9649324081,
      "latitude_deg": 0.0026163026418313425,
      "longitude_deg": 93.48930903099863,
      "height_km": 35778.8184435,
      "semi_major_axis_km": 42165.42552745978,
      "eccentricity": 0.0003397,
      "inclination_deg": 0.0449,
      "raan_deg": 89.0869,
      "arg_perigee_deg": 230.3913,
      "mean_anomaly_deg": 303.9841,
      "mean_motion_rev_day": 1.00269311
    },
    {
      "epoch": "2026-05-11T20:32:21.787008Z",
      "apogee_km": 35802.28548262095,
      "perigee_km": 35774.11836821877,
      "latitude_deg": -0.0006289100040504265,
      "longitude_deg": 93.47282367006108,
      "height_km": 35777.873805326395,
      "semi_major_axis_km": 42166.33892541986,
      "eccentricity": 0.000334,
      "inclination_deg": 0.0134,
      "raan_deg": 74.5599,
      "arg_perigee_deg": 242.1901,
      "mean_anomaly_deg": 314.4923,
      "mean_motion_rev_day": 1.00266053
    },
    {
      "epoch": "2026-05-12T21:05:01.457376Z",
      "apogee_km": 35801.04467205081,
      "perigee_km": 35774.640335685486,
      "latitude_deg": -0.0009587920285216649,
      "longitude_deg": 93.47212899087815,
      "height_km": 35776.62099768254,
      "semi_major_axis_km": 42165.97950386815,
      "eccentricity": 0.0003131,
      "inclination_deg": 0.0161,
      "raan_deg": 68.9516,
      "arg_perigee_deg": 246.817,
      "mean_anomaly_deg": 324.6416,
      "mean_motion_rev_day": 1.00267335
    },
    {
      "epoch": "2026-05-13T20:27:21.749184Z",
      "apogee_km": 35801.90047431619,
      "perigee_km": 35773.44698523574,
      "latitude_deg": -6.8995246320498565e-06,
      "longitude_deg": 93.45991592891106,
      "height_km": 35776.86216871017,
      "semi_major_axis_km": 42165.81072977597,
      "eccentricity": 0.0003374,
      "inclination_deg": 0.0194,
      "raan_deg": 65.2732,
      "arg_perigee_deg": 249.955,
      "mean_anomaly_deg": 316.7211,
      "mean_motion_rev_day": 1.00267937
    },
    {
      "epoch": "2026-05-14T01:15:13.120416Z",
      "apogee_km": 35801.90752690029,
      "perigee_km": 35773.41862573673,
      "latitude_deg": 0.0005906645397387534,
      "longitude_deg": 93.50431301304309,
      "height_km": 35774.80869440406,
      "semi_major_axis_km": 42165.80007631852,
      "eccentricity": 0.00033782,
      "inclination_deg": 0.0209,
      "raan_deg": 64.3474,
      "arg_perigee_deg": 250.3417,
      "mean_anomaly_deg": 29.4205,
      "mean_motion_rev_day": 1.00267975
    }
  ]
}